{
"type": "FeatureCollection",
"name": "addresses",
"crs": { "type": "name", "properties": { "name": "urn:ogc:def:crs:OGC:1.3:CRS84" } },
"features": [
{ "type": "Feature", "properties": { "osm_id": 4612973893, "shop": "supermarket", "addr:housenumber": "28", "operator": null, "tourism": null, "name": null, "amenity": null, "religion": null, "denomination": null, "addr:postcode": "3950", "name:da": "Dora Marie", "addr:city": "Aasiaat", "addr:street": "Killerpaat", "phone": null, "wikidata": null, "email": null, "website": null, "name:kl": null, "service_times": null, "alt_name": null }, "geometry": { "type": "Point", "coordinates": [ -52.8802806, 68.7047876 ] } },
{ "type": "Feature", "properties": { "osm_id": 3567412822, "shop": null, "addr:housenumber": "2", "operator": "Kommuneq Qeqertalik", "tourism": "museum", "name": "Aasiaat Museum", "amenity": null, "religion": null, "denomination": null, "addr:postcode": "3950", "name:da": null, "addr:city": "Aasiaat", "addr:street": "Niels Egedes Vej", "phone": "+299894761", "wikidata": "Q11296125", "email": "aas_museum@qeqertalik.gl", "website": null, "name:kl": null, "service_times": null, "alt_name": null }, "geometry": { "type": "Point", "coordinates": [ -52.8709421, 68.708477 ] } },
{ "type": "Feature", "properties": { "osm_id": 5003760726, "shop": null, "addr:housenumber": "11", "operator": null, "tourism": null, "name": "Inuunerup Nutaap Oqaluffia Aasiaat", "amenity": "place_of_worship", "religion": "christian", "denomination": "charismatic", "addr:postcode": "3950", "name:da": "Gr√∏nlands Frikirke Aasiaat", "addr:city": "Aasiaat", "addr:street": "Tipituup saqqaa", "phone": "+299 89 21 69", "wikidata": null, "email": "ino.aasiaat@greennet.gl", "website": "https:\/\/ino.gl\/kirker\/ino-aasiaat", "name:kl": "Inuunerup Nutaap Oqaluffia Aasiaat", "service_times": "Su 11:00-12:30", "alt_name": "INO Aasiaat" }, "geometry": { "type": "Point", "coordinates": [ -52.8534115, 68.711657 ] } }
]
}
